{
    "CCSDS_OMM_VERS": "3.0",
    "COMMENT": "GENERATED VIA SPACE-TRACK.ORG API",
    "CREATION_DATE": "2025-05-23T06:26:20",
    "ORIGINATOR": "18 SPCS",
    "OBJECT_NAME": "GALILEO 30 (10E)",
    "OBJECT_ID": "2024-079C",
    "CENTER_NAME": "EARTH",
    "REF_FRAME": "TEME",
    "TIME_SYSTEM": "UTC",
    "MEAN_ELEMENT_THEORY": "SGP4",
    "EPOCH": "2025-05-22T22:13:17.439456",
    "MEAN_MOTION": "1.70474247",
    "ECCENTRICITY": "0.00007660",
    "INCLINATION": "54.8772",
    "RA_OF_ASC_NODE": "111.9969",
    "ARG_OF_PERICENTER": "6.9063",
    "MEAN_ANOMALY": "353.0659",
    "EPHEMERIS_TYPE": "0",
    "CLASSIFICATION_TYPE": "U",
    "NORAD_CAT_ID": "59600",
    "ELEMENT_SET_NO": "999",
    "REV_AT_EPOCH": "671",
    "BSTAR": "0.00000000000000",
    "MEAN_MOTION_DOT": "0.00000055",
    "MEAN_MOTION_DDOT": "0.0000000000000",
    "SEMIMAJOR_AXIS": "29600.291",
    "PERIOD": "844.702",
    "APOAPSIS": "23224.424",
    "PERIAPSIS": "23219.889",
    "OBJECT_TYPE": "PAYLOAD",
    "RCS_SIZE": "LARGE",
    "COUNTRY_CODE": "ESA",
    "LAUNCH_DATE": "2024-04-28",
    "SITE": "AFETR",
    "DECAY_DATE": null,
    "FILE": "4736574",
    "GP_ID": "288166518",
    "TLE_LINE0": "0 GALILEO 30 (10E)",
    "TLE_LINE1": "1 59600U 24079C   25142.92589629  .00000055  00000-0  00000+0 0  9995",
    "TLE_LINE2": "2 59600  54.8772 111.9969 0000766   6.9063 353.0659  1.70474247  6715"
}